start=new Date('2022-07-07T00:00:00.000Z').valueOf();
sats=[{"CENTER_NAME":"EARTH","SEMIMAJOR_AXIS":"6728.280","RCS_SIZE":"LARGE","OBJECT_ID":"2022-049AJ","TLE_LINE2":"2 52483  53.2152 323.1248 0002319  30.6762 116.3996 15.73064930  9815","ARG_OF_PERICENTER":"30.6762","TIME_SYSTEM":"UTC","BSTAR":"0.00048976000000","MEAN_MOTION_DOT":"0.00068282","DECAY_DATE":null,"MEAN_MOTION_DDOT":"0.0000000000000","EPOCH":"2022-07-06T16:00:00.999936","OBJECT_TYPE":"PAYLOAD","COUNTRY_CODE":"US","REV_AT_EPOCH":"981","MEAN_ELEMENT_THEORY":"SGP4","ELEMENT_SET_NO":"999","APOAPSIS":"351.706","PERIOD":"91.541","NORAD_CAT_ID":"52483","CLASSIFICATION_TYPE":"U","FILE":"3508746","OBJECT_NAME":"STARLINK-3875","LAUNCH_DATE":"2022-05-06","EPHEMERIS_TYPE":"0","SITE":"AFETR","INCLINATION":"53.2152","TLE_LINE1":"1 52483U 22049AJ  22187.66667824  .00068282  00000-0  48976-3 0  9997","PERIAPSIS":"348.585","GP_ID":"207517172","MEAN_MOTION":"15.73064930","RA_OF_ASC_NODE":"323.1248","REF_FRAME":"TEME","ECCENTRICITY":"0.00023190","MEAN_ANOMALY":"116.3996"},{"BSTAR":"-0.02648200000000","MEAN_MOTION_DOT":"-0.01069002","TIME_SYSTEM":"UTC","ARG_OF_PERICENTER":"31.8045","OBJECT_ID":"2022-049AK","TLE_LINE2":"2 52484  53.2176 325.3206 0002120  31.8045 155.0535 15.42424926  9783","SEMIMAJOR_AXIS":"6817.092","RCS_SIZE":"LARGE","CENTER_NAME":"EARTH","EPOCH":"2022-07-06T16:00:00.999936","OBJECT_TYPE":"PAYLOAD","MEAN_MOTION_DDOT":"0.0000000000000","DECAY_DATE":null,"INCLINATION":"53.2176","SITE":"AFETR","EPHEMERIS_TYPE":"0","OBJECT_NAME":"STARLINK-3887","LAUNCH_DATE":"2022-05-06","PERIOD":"93.359","NORAD_CAT_ID":"52484","CLASSIFICATION_TYPE":"U","FILE":"3508746","REV_AT_EPOCH":"978","MEAN_ELEMENT_THEORY":"SGP4","APOAPSIS":"440.402","ELEMENT_SET_NO":"999","COUNTRY_CODE":"US","ECCENTRICITY":"0.00021200","MEAN_ANOMALY":"155.0535","REF_FRAME":"TEME","RA_OF_ASC_NODE":"325.3206","MEAN_MOTION":"15.42424926","GP_ID":"207516966","PERIAPSIS":"437.512","TLE_LINE1":"1 52484U 22049AK  22187.66667824 -.01069002  00000-0 -26482-1 0  9998"},{"OBJECT_TYPE":"PAYLOAD","EPOCH":"2022-07-06T16:00:00.999936","MEAN_MOTION_DDOT":"0.0000000000000","DECAY_DATE":null,"BSTAR":"0.00015872000000","MEAN_MOTION_DOT":"0.00021714","TLE_LINE2":"2 52485  53.2154 323.1206 0002553  22.1189 127.8110 15.73200642  9819","OBJECT_ID":"2022-049AL","TIME_SYSTEM":"UTC","ARG_OF_PERICENTER":"22.1189","CENTER_NAME":"EARTH","SEMIMAJOR_AXIS":"6727.893","RCS_SIZE":"LARGE","MEAN_ANOMALY":"127.8110","ECCENTRICITY":"0.00025530","MEAN_MOTION":"15.73200642","RA_OF_ASC_NODE":"323.1206","REF_FRAME":"TEME","PERIAPSIS":"348.041","GP_ID":"207516969","TLE_LINE1":"1 52485U 22049AL  22187.66667824  .00021714  00000-0  15872-3 0  9997","SITE":"AFETR","INCLINATION":"53.2154","LAUNCH_DATE":"2022-05-06","OBJECT_NAME":"STARLINK-3913","EPHEMERIS_TYPE":"0","ELEMENT_SET_NO":"999","APOAPSIS":"351.476","REV_AT_EPOCH":"981","MEAN_ELEMENT_THEORY":"SGP4","FILE":"3508747","NORAD_CAT_ID":"52485","PERIOD":"91.533","CLASSIFICATION_TYPE":"U","COUNTRY_CODE":"US"},{"OBJECT_NAME":"STARLINK-3918","LAUNCH_DATE":"2022-05-06","EPHEMERIS_TYPE":"0","SITE":"AFETR","INCLINATION":"53.2176","COUNTRY_CODE":"US","REV_AT_EPOCH":"978","MEAN_ELEMENT_THEORY":"SGP4","APOAPSIS":"438.569","ELEMENT_SET_NO":"999","PERIOD":"93.324","CLASSIFICATION_TYPE":"U","NORAD_CAT_ID":"52486","FILE":"3508746","MEAN_MOTION":"15.43014725","RA_OF_ASC_NODE":"325.3398","REF_FRAME":"TEME","MEAN_ANOMALY":"159.8256","ECCENTRICITY":"0.00019800","TLE_LINE1":"1 52486U 22049AM  22187.66667824 -.01054437  00000-0 -25964-1 0  9990","PERIAPSIS":"435.870","GP_ID":"207517174","BSTAR":"-0.02596400000000","MEAN_MOTION_DOT":"-0.01054437","CENTER_NAME":"EARTH","RCS_SIZE":"LARGE","SEMIMAJOR_AXIS":"6815.355","OBJECT_ID":"2022-049AM","TLE_LINE2":"2 52486  53.2176 325.3398 0001980  35.4485 159.8256 15.43014725  9783","ARG_OF_PERICENTER":"35.4485","TIME_SYSTEM":"UTC","MEAN_MOTION_DDOT":"0.0000000000000","EPOCH":"2022-07-06T16:00:00.999936","OBJECT_TYPE":"PAYLOAD","DECAY_DATE":null},{"BSTAR":"0.00013695000000","MEAN_MOTION_DOT":"0.00018643","CENTER_NAME":"EARTH","RCS_SIZE":"LARGE","SEMIMAJOR_AXIS":"6727.894","OBJECT_ID":"2022-049AN","TLE_LINE2":"2 52487  53.2153 323.1208 0002575  19.4733 129.8080 15.73200312  9812","ARG_OF_PERICENTER":"19.4733","TIME_SYSTEM":"UTC","MEAN_MOTION_DDOT":"0.0000000000000","OBJECT_TYPE":"PAYLOAD","EPOCH":"2022-07-06T16:00:00.999936","DECAY_DATE":null,"OBJECT_NAME":"STARLINK-3902","LAUNCH_DATE":"2022-05-06","EPHEMERIS_TYPE":"0","SITE":"AFETR","INCLINATION":"53.2153","COUNTRY_CODE":"US","REV_AT_EPOCH":"981","MEAN_ELEMENT_THEORY":"SGP4","ELEMENT_SET_NO":"999","APOAPSIS":"351.492","CLASSIFICATION_TYPE":"U","PERIOD":"91.533","NORAD_CAT_ID":"52487","FILE":"3508747","MEAN_MOTION":"15.73200312","RA_OF_ASC_NODE":"323.1208","REF_FRAME":"TEME","MEAN_ANOMALY":"129.8080","ECCENTRICITY":"0.00025750","TLE_LINE1":"1 52487U 22049AN  22187.66667824  .00018643  00000-0  13695-3 0  9997","PERIAPSIS":"348.027","GP_ID":"207517189"},{"DECAY_DATE":null,"MEAN_MOTION_DDOT":"0.0000000000000","EPOCH":"2022-07-06T16:00:00.999936","OBJECT_TYPE":"PAYLOAD","SEMIMAJOR_AXIS":"6814.505","RCS_SIZE":"LARGE","CENTER_NAME":"EARTH","ARG_OF_PERICENTER":"32.1825","TIME_SYSTEM":"UTC","TLE_LINE2":"2 52488  53.2176 325.3486 0002099  32.1825 167.4310 15.43303435  9782","OBJECT_ID":"2022-049AP","MEAN_MOTION_DOT":"-0.01054520","BSTAR":"-0.02571200000000","TLE_LINE1":"1 52488U 22049AP  22187.66667824 -.01054520  00000-0 -25712-1 0  9996","GP_ID":"207516967","PERIAPSIS":"434.939","REF_FRAME":"TEME","RA_OF_ASC_NODE":"325.3486","MEAN_MOTION":"15.43303435","MEAN_ANOMALY":"167.4310","ECCENTRICITY":"0.00020990","COUNTRY_CODE":"US","FILE":"3508746","PERIOD":"93.306","CLASSIFICATION_TYPE":"U","NORAD_CAT_ID":"52488","ELEMENT_SET_NO":"999","APOAPSIS":"437.800","REV_AT_EPOCH":"978","MEAN_ELEMENT_THEORY":"SGP4","EPHEMERIS_TYPE":"0","LAUNCH_DATE":"2022-05-06","OBJECT_NAME":"STARLINK-3892","INCLINATION":"53.2176","SITE":"AFETR"},{"ECCENTRICITY":"0.00019830","MEAN_ANOMALY":"155.6967","REF_FRAME":"TEME","RA_OF_ASC_NODE":"325.3304","MEAN_MOTION":"15.42719821","GP_ID":"207517171","PERIAPSIS":"436.737","TLE_LINE1":"1 52489U 22049AQ  22187.66667824 -.01069063  00000-0 -26222-1 0  9992","INCLINATION":"53.2176","SITE":"AFETR","EPHEMERIS_TYPE":"0","LAUNCH_DATE":"2022-05-06","OBJECT_NAME":"STARLINK-3923","FILE":"3508746","PERIOD":"93.342","NORAD_CAT_ID":"52489","CLASSIFICATION_TYPE":"U","ELEMENT_SET_NO":"999","APOAPSIS":"439.440","REV_AT_EPOCH":"978","MEAN_ELEMENT_THEORY":"SGP4","COUNTRY_CODE":"US","EPOCH":"2022-07-06T16:00:00.999936","OBJECT_TYPE":"PAYLOAD","MEAN_MOTION_DDOT":"0.0000000000000","DECAY_DATE":null,"BSTAR":"-0.02622200000000","MEAN_MOTION_DOT":"-0.01069063","TIME_SYSTEM":"UTC","ARG_OF_PERICENTER":"35.4380","TLE_LINE2":"2 52489  53.2176 325.3304 0001983  35.4380 155.6967 15.42719821  9781","OBJECT_ID":"2022-049AQ","SEMIMAJOR_AXIS":"6816.223","RCS_SIZE":"LARGE","CENTER_NAME":"EARTH"},{"DECAY_DATE":null,"MEAN_MOTION_DDOT":"0.0000000000000","OBJECT_TYPE":"PAYLOAD","EPOCH":"2022-07-06T16:00:00.999936","SEMIMAJOR_AXIS":"6727.726","RCS_SIZE":"LARGE","CENTER_NAME":"EARTH","TIME_SYSTEM":"UTC","ARG_OF_PERICENTER":"24.9421","OBJECT_ID":"2022-049AR","TLE_LINE2":"2 52490  53.2170 323.1172 0002655  24.9421 129.8816 15.73259175  9817","BSTAR":"-0.00018746000000","MEAN_MOTION_DOT":"-0.00026919","TLE_LINE1":"1 52490U 22049AR  22187.66667824 -.00026919  00000-0 -18746-3 0  9990","GP_ID":"207516965","PERIAPSIS":"347.805","REF_FRAME":"TEME","MEAN_MOTION":"15.73259175","RA_OF_ASC_NODE":"323.1172","MEAN_ANOMALY":"129.8816","ECCENTRICITY":"0.00026550","COUNTRY_CODE":"US","PERIOD":"91.530","CLASSIFICATION_TYPE":"U","NORAD_CAT_ID":"52490","FILE":"3508746","REV_AT_EPOCH":"981","MEAN_ELEMENT_THEORY":"SGP4","APOAPSIS":"351.378","ELEMENT_SET_NO":"999","EPHEMERIS_TYPE":"0","OBJECT_NAME":"STARLINK-3914","LAUNCH_DATE":"2022-05-06","INCLINATION":"53.2170","SITE":"AFETR"},{"CENTER_NAME":"EARTH","RCS_SIZE":"LARGE","SEMIMAJOR_AXIS":"6727.899","TLE_LINE2":"2 52491  53.2154 323.5267 0002462  17.3363  23.5128 15.73198563  1301","OBJECT_ID":"2022-049AS","ARG_OF_PERICENTER":"17.3363","TIME_SYSTEM":"UTC","MEAN_MOTION_DOT":"-0.00004374","BSTAR":"-0.00002674600000","DECAY_DATE":null,"MEAN_MOTION_DDOT":"0.0000000000000","EPOCH":"2022-07-06T14:00:01.000224","OBJECT_TYPE":"PAYLOAD","COUNTRY_CODE":"US","ELEMENT_SET_NO":"999","APOAPSIS":"351.421","REV_AT_EPOCH":"130","MEAN_ELEMENT_THEORY":"SGP4","FILE":"3508782","NORAD_CAT_ID":"52491","PERIOD":"91.533","CLASSIFICATION_TYPE":"U","LAUNCH_DATE":"2022-05-06","OBJECT_NAME":"STARLINK-3908","EPHEMERIS_TYPE":"0","SITE":"AFETR","INCLINATION":"53.2154","TLE_LINE1":"1 52491U 22049AS  22187.58334491 -.00004374  00000-0 -26746-4 0  9994","PERIAPSIS":"348.108","GP_ID":"207541918","RA_OF_ASC_NODE":"323.5267","MEAN_MOTION":"15.73198563","REF_FRAME":"TEME","MEAN_ANOMALY":"23.5128","ECCENTRICITY":"0.00024620"},{"BSTAR":"-0.00002421700000","MEAN_MOTION_DOT":"-0.00004013","OBJECT_ID":"2022-049AT","TLE_LINE2":"2 52492  53.2166 323.5239 0002225  24.9200  19.1098 15.73160975  1308","TIME_SYSTEM":"UTC","ARG_OF_PERICENTER":"24.9200","CENTER_NAME":"EARTH","RCS_SIZE":"LARGE","SEMIMAJOR_AXIS":"6728.006","EPOCH":"2022-07-06T14:00:01.000224","OBJECT_TYPE":"PAYLOAD","MEAN_MOTION_DDOT":"0.0000000000000","DECAY_DATE":null,"SITE":"AFETR","INCLINATION":"53.2166","OBJECT_NAME":"STARLINK-3916","LAUNCH_DATE":"2022-05-06","EPHEMERIS_TYPE":"0","REV_AT_EPOCH":"130","MEAN_ELEMENT_THEORY":"SGP4","ELEMENT_SET_NO":"999","APOAPSIS":"351.368","PERIOD":"91.535","NORAD_CAT_ID":"52492","CLASSIFICATION_TYPE":"U","FILE":"3508782","COUNTRY_CODE":"US","ECCENTRICITY":"0.00022250","MEAN_ANOMALY":"19.1098","MEAN_MOTION":"15.73160975","RA_OF_ASC_NODE":"323.5239","REF_FRAME":"TEME","PERIAPSIS":"348.374","GP_ID":"207542017","TLE_LINE1":"1 52492U 22049AT  22187.58334491 -.00004013  00000-0 -24217-4 0  9996"}];
